LEMUR-2-PETERG          
1 42841U 17042S   26068.48235713  .00023240  00000+0  81076-3 0  9993
2 42841  97.3980 253.6596 0003700 341.6938  18.4169 15.29611459473171
STARLINK-34502          
1 64680U 25139S   26068.53702316  .00023331  00000+0  79722-3 0  9994
2 64680  53.1590 127.5402 0001367  86.7466 273.3692 15.30205846 40262
